IRIDIUM 112             
1 41925U 17003J   24315.45011437  .00000803  00000+0  27978-3 0  9998
2 41925  86.3954 332.2538 0002234 102.4757 257.6689 14.34222484409607
IRIDIUM 111             
1 41926U 17003K   24315.08859360  .00001268  00000+0  44553-3 0  9997
2 41926  86.3957 332.4626 0002374  92.8448 267.3019 14.34219426409534
IRIDIUM 113             
1 42803U 17039A   24315.41739725  .00001095  00000+0  38403-3 0  9995
2 42803  86.4022 206.0875 0002230  93.5162 266.6289 14.34218140387513
IRIDIUM 123             
1 42804U 17039B   24315.52863752  .00001343  00000+0  47257-3 0  9999
2 42804  86.3996 237.4919 0002510  79.3606 280.7872 14.34211728386290
IRIDIUM 120             
1 42805U 17039C   24315.41105310  .00001411  00000+0  49663-3 0  9996
2 42805  86.4015 205.9487 0002049  75.9407 284.2017 14.34232314387501
IRIDIUM 115             
1 42806U 17039D   24315.42224062  .00002455  00000+0  72391-3 0  9997
2 42806  86.4555 205.9903 0002562  79.9151 280.2339 14.43270234390065
IRIDIUM 118             
1 42807U 17039E   24315.49058577  .00001436  00000+0  50566-3 0  9999
2 42807  86.3991 237.5086 0002074  83.6466 276.4966 14.34224152386281
IRIDIUM 117             
1 42808U 17039F   24315.50961754  .00000895  00000+0  31250-3 0  9999
2 42808  86.3988 237.4637 0002469  81.7434 278.4042 14.34219107386316
